[
    {
        "Altitude(m)": 558893.8685938844,
        "Argument of Periapsis(deg)": 0.006622991110713501,
        "Eccentricity": 0.0,
        "Inclination(deg)": 53.0,
        "Latitude(deg)": 48.736919756134256,
        "Longitude(deg)": 30.559135843169543,
        "Mean Anomaly(deg)": 110.09159286757756,
        "RAAN(deg)": 9.990143368528015,
        "Satellite Name": "Starlink Shell 1 50",
        "Satellite Number": 50,
        "Semi-Major Axis(m)": 6931778.249405717,
        "Time(s)": 190
    },
    {
        "Altitude(m)": 558833.5484604401,
        "Argument of Periapsis(deg)": 0.0069715695902247375,
        "Eccentricity": 0.0,
        "Inclination(deg)": 53.0,
        "Latitude(deg)": 48.47312670542134,
        "Longitude(deg)": 31.375800458694844,
        "Mean Anomaly(deg)": 110.71842407113431,
        "RAAN(deg)": 9.989624598450543,
        "Satellite Name": "Starlink Shell 1 50",
        "Satellite Number": 50,
        "Semi-Major Axis(m)": 6931778.249405717,
        "Time(s)": 200
    },
    {
        "Altitude(m)": 558771.8069697268,
        "Argument of Periapsis(deg)": 0.007320148069735974,
        "Eccentricity": 0.0,
        "Inclination(deg)": 53.0,
        "Latitude(deg)": 48.20299451367528,
        "Longitude(deg)": 32.183518605548336,
        "Mean Anomaly(deg)": 111.345255274691,
        "RAAN(deg)": 9.989105828373072,
        "Satellite Name": "Starlink Shell 1 50",
        "Satellite Number": 50,
        "Semi-Major Axis(m)": 6931778.249405717,
        "Time(s)": 210
    },
    {
        "Altitude(m)": 558708.6820258993,
        "Argument of Periapsis(deg)": 0.007668726549247212,
        "Eccentricity": 0.0,
        "Inclination(deg)": 53.0,
        "Latitude(deg)": 47.926647642285126,
        "Longitude(deg)": 32.98226184573526,
        "Mean Anomaly(deg)": 111.97208647824776,
        "RAAN(deg)": 9.988587058295598,
        "Satellite Name": "Starlink Shell 1 50",
        "Satellite Number": 50,
        "Semi-Major Axis(m)": 6931778.249405717,
        "Time(s)": 220
    },
    {
        "Altitude(m)": 558644.2124376603,
        "Argument of Periapsis(deg)": 0.00801730502875845,
        "Eccentricity": 0.0,
        "Inclination(deg)": 53.0,
        "Latitude(deg)": 47.644210177061666,
        "Longitude(deg)": 33.77201353538658,
        "Mean Anomaly(deg)": 112.59891768180447,
        "RAAN(deg)": 9.988068288218127,
        "Satellite Name": "Starlink Shell 1 50",
        "Satellite Number": 50,
        "Semi-Major Axis(m)": 6931778.249405717,
        "Time(s)": 230
    },
    {
        "Altitude(m)": 558578.4378990412,
        "Argument of Periapsis(deg)": 0.008365883508269684,
        "Eccentricity": 0.0,
        "Inclination(deg)": 53.0,
        "Latitude(deg)": 47.35580566400069,
        "Longitude(deg)": 34.55276877749885,
        "Mean Anomaly(deg)": 113.22574888536116,
        "RAAN(deg)": 9.987549518140652,
        "Satellite Name": "Starlink Shell 1 50",
        "Satellite Number": 50,
        "Semi-Major Axis(m)": 6931778.249405717,
        "Time(s)": 240
    },
    {
        "Altitude(m)": 558511.398969781,
        "Argument of Periapsis(deg)": 0.008714461987780921,
        "Eccentricity": 0.0,
        "Inclination(deg)": 53.0,
        "Latitude(deg)": 47.061556956244026,
        "Longitude(deg)": 35.324532856265584,
        "Mean Anomaly(deg)": 113.85258008891786,
        "RAAN(deg)": 9.98703074806318,
        "Satellite Name": "Starlink Shell 1 50",
        "Satellite Number": 50,
        "Semi-Major Axis(m)": 6931778.249405717,
        "Time(s)": 250
    },
    {
        "Altitude(m)": 558443.1370552406,
        "Argument of Periapsis(deg)": 0.009063040467292158,
        "Eccentricity": 0.0,
        "Inclination(deg)": 53.0,
        "Latitude(deg)": 46.76158607211807,
        "Longitude(deg)": 36.08732118221381,
        "Mean Anomaly(deg)": 114.47941129247457,
        "RAAN(deg)": 9.986511977985709,
        "Satellite Name": "Starlink Shell 1 50",
        "Satellite Number": 50,
        "Semi-Major Axis(m)": 6931778.249405717,
        "Time(s)": 260
    },
    {
        "Altitude(m)": 558373.6943858707,
        "Argument of Periapsis(deg)": 0.009411618946803396,
        "Eccentricity": 0.0,
        "Inclination(deg)": 53.0,
        "Latitude(deg)": 46.45601406406266,
        "Longitude(deg)": 36.84115923844131,
        "Mean Anomaly(deg)": 115.1062424960313,
        "RAAN(deg)": 9.985993207908233,
        "Satellite Name": "Starlink Shell 1 50",
        "Satellite Number": 50,
        "Semi-Major Axis(m)": 6931778.249405717,
        "Time(s)": 270
    },
    {
        "Altitude(m)": 558303.113996253,
        "Argument of Periapsis(deg)": 0.009760197426314633,
        "Eccentricity": 0.0,
        "Inclination(deg)": 53.0,
        "Latitude(deg)": 46.14496089821232,
        "Longitude(deg)": 37.58608101794888,
        "Mean Anomaly(deg)": 115.73307369958803,
        "RAAN(deg)": 9.985474437830762,
        "Satellite Name": "Starlink Shell 1 50",
        "Satellite Number": 50,
        "Semi-Major Axis(m)": 6931778.249405717,
        "Time(s)": 280
    },
    {
        "Altitude(m)": 558231.4397037509,
        "Argument of Periapsis(deg)": 0.01010877590582587,
        "Eccentricity": 0.0,
        "Inclination(deg)": 53.0,
        "Latitude(deg)": 45.82854534435446,
        "Longitude(deg)": 38.322128980394716,
        "Mean Anomaly(deg)": 116.35990490314472,
        "RAAN(deg)": 9.984955667753288,
        "Satellite Name": "Starlink Shell 1 50",
        "Satellite Number": 50,
        "Semi-Major Axis(m)": 6931778.249405717,
        "Time(s)": 290
    },
    {
        "Altitude(m)": 558158.7160867114,
        "Argument of Periapsis(deg)": 0.010457354385337106,
        "Eccentricity": 0.0,
        "Inclination(deg)": 53.0,
        "Latitude(deg)": 45.506884875943406,
        "Longitude(deg)": 39.0493540176851,
        "Mean Anomaly(deg)": 116.98673610670144,
        "RAAN(deg)": 9.984436897675815,
        "Satellite Name": "Starlink Shell 1 50",
        "Satellite Number": 50,
        "Semi-Major Axis(m)": 6931778.249405717,
        "Time(s)": 300
    },
    {
        "Altitude(m)": 558084.9884622822,
        "Argument of Periapsis(deg)": 0.010805932864848343,
        "Eccentricity": 0.0,
        "Inclination(deg)": 53.0,
        "Latitude(deg)": 45.18009557981834,
        "Longitude(deg)": 39.76781391753694,
        "Mean Anomaly(deg)": 117.61356731025818,
        "RAAN(deg)": 9.983918127598342,
        "Satellite Name": "Starlink Shell 1 50",
        "Satellite Number": 50,
        "Semi-Major Axis(m)": 6931778.249405717,
        "Time(s)": 310
    },
    {
        "Altitude(m)": 558010.3028638472,
        "Argument of Periapsis(deg)": 0.01115451134435958,
        "Eccentricity": 0.0,
        "Inclination(deg)": 53.0,
        "Latitude(deg)": 44.848292075254996,
        "Longitude(deg)": 40.47757335250397,
        "Mean Anomaly(deg)": 118.24039851381487,
        "RAAN(deg)": 9.98339935752087,
        "Satellite Name": "Starlink Shell 1 50",
        "Satellite Number": 50,
        "Semi-Major Axis(m)": 6931778.249405717,
        "Time(s)": 320
    },
    {
        "Altitude(m)": 557934.7060180734,
        "Argument of Periapsis(deg)": 0.011503089823870818,
        "Eccentricity": 0.0,
        "Inclination(deg)": 53.0,
        "Latitude(deg)": 44.51158744195247,
        "Longitude(deg)": 41.17870388308175,
        "Mean Anomaly(deg)": 118.86722971737159,
        "RAAN(deg)": 9.982880587443397,
        "Satellite Name": "Starlink Shell 1 50",
        "Satellite Number": 50,
        "Semi-Major Axis(m)": 6931778.249405717,
        "Time(s)": 330
    },
    {
        "Altitude(m)": 557858.2453215865,
        "Argument of Periapsis(deg)": 0.011851668303382053,
        "Eccentricity": 0.0,
        "Inclination(deg)": 53.0,
        "Latitude(deg)": 44.17009315654439,
        "Longitude(deg)": 41.87128246326406,
        "Mean Anomaly(deg)": 119.49406092092829,
        "RAAN(deg)": 9.982361817365925,
        "Satellite Name": "Starlink Shell 1 50",
        "Satellite Number": 50,
        "Semi-Major Axis(m)": 6931778.249405717,
        "Time(s)": 340
    },
    {
        "Altitude(m)": 557780.968817273,
        "Argument of Periapsis(deg)": 0.012200246782893292,
        "Eccentricity": 0.0,
        "Inclination(deg)": 53.0,
        "Latitude(deg)": 43.82391903721778,
        "Longitude(deg)": 42.55539147532577,
        "Mean Anomaly(deg)": 120.12089212448502,
        "RAAN(deg)": 9.981843047288452,
        "Satellite Name": "Starlink Shell 1 50",
        "Satellite Number": 50,
        "Semi-Major Axis(m)": 6931778.249405717,
        "Time(s)": 350
    },
    {
        "Altitude(m)": 557702.9251702862,
        "Argument of Periapsis(deg)": 0.012548825262404526,
        "Eccentricity": 0.0,
        "Inclination(deg)": 53.0,
        "Latitude(deg)": 43.47317319601183,
        "Longitude(deg)": 43.23111878177352,
        "Mean Anomaly(deg)": 120.74772332804176,
        "RAAN(deg)": 9.981324277210978,
        "Satellite Name": "Starlink Shell 1 50",
        "Satellite Number": 50,
        "Semi-Major Axis(m)": 6931778.249405717,
        "Time(s)": 360
    },
    {
        "Altitude(m)": 557624.163643627,
        "Argument of Periapsis(deg)": 0.012897403741915765,
        "Eccentricity": 0.0,
        "Inclination(deg)": 53.0,
        "Latitude(deg)": 43.11796199836619,
        "Longitude(deg)": 43.89855628221318,
        "Mean Anomaly(deg)": 121.37455453159845,
        "RAAN(deg)": 9.980805507133507,
        "Satellite Name": "Starlink Shell 1 50",
        "Satellite Number": 50,
        "Semi-Major Axis(m)": 6931778.249405717,
        "Time(s)": 370
    }
]